{
  "type": "FeatureCollection",
  "features": [
    {
      "type": "Feature",
      "properties": {
        "norad_id": 19071,
        "name": "OSCAR 32",
        "group": "nnss",
        "lat": 2.720218895836738,
        "lon": 16.25557561080881,
        "alt_km": 1297.4276745439665,
        "timestamp": "2025-12-04T13:52:00.711312+00:00",
        "meta_object_name": "OSCAR 32",
        "meta_object_id": "1988-033B",
        "meta_epoch": "2025-12-04T03:16:50.049696",
        "meta_mean_motion": 13.27952281,
        "meta_eccentricity": 0.01876287,
        "meta_inclination": 90.3227,
        "meta_ra_of_asc_node": 16.2571,
        "meta_arg_of_pericenter": 190.7186,
        "meta_mean_anomaly": 224.3743,
        "meta_ephemeris_type": 0,
        "meta_classification_type": "U",
        "meta_norad_cat_id": 19071,
        "meta_element_set_no": 999,
        "meta_rev_at_epoch": 82151,
        "meta_bstar": 0.00022431763,
        "meta_mean_motion_dot": 1.2e-06,
        "meta_mean_motion_ddot": 0,
        "tle_line1": "1 19071U 88033B   25338.13669039  .00000120  00000+0  22432-3 0  9996",
        "tle_line2": "2 19071  90.3227  16.2571 0187628 190.7186 224.3743 13.27952281821511"
      },
      "geometry": {
        "type": "Point",
        "coordinates": [
          16.25557561080881,
          2.720218895836738
        ]
      }
    },
    {
      "type": "Feature",
      "properties": {
        "norad_id": 19223,
        "name": "NOVA 2",
        "group": "nnss",
        "lat": -13.352872857825126,
        "lon": 78.27943138749913,
        "alt_km": 1163.463470495316,
        "timestamp": "2025-12-04T13:52:00.711322+00:00",
        "meta_object_name": "NOVA 2",
        "meta_object_id": "1988-052A",
        "meta_epoch": "2025-12-04T06:56:31.263936",
        "meta_mean_motion": 13.22934462,
        "meta_eccentricity": 0.00312607,
        "meta_inclination": 89.9873,
        "meta_ra_of_asc_node": 78.2828,
        "meta_arg_of_pericenter": 39.6387,
        "meta_mean_anomaly": 14.0315,
        "meta_ephemeris_type": 0,
        "meta_classification_type": "U",
        "meta_norad_cat_id": 19223,
        "meta_element_set_no": 999,
        "meta_rev_at_epoch": 80836,
        "meta_bstar": 0.00018297762,
        "meta_mean_motion_dot": 8.6e-07,
        "meta_mean_motion_ddot": 0,
        "tle_line1": "1 19223U 88052A   25338.28925074  .00000086  00000+0  18298-3 0  9992",
        "tle_line2": "2 19223  89.9873  78.2828 0031260  39.6387  14.0315 13.22934462808361"
      },
      "geometry": {
        "type": "Point",
        "coordinates": [
          78.27943138749913,
          -13.352872857825126
        ]
      }
    },
    {
      "type": "Feature",
      "properties": {
        "norad_id": 19419,
        "name": "OSCAR 25",
        "group": "nnss",
        "lat": -24.69642006953894,
        "lon": -159.79918366318597,
        "alt_km": 1074.7575562404963,
        "timestamp": "2025-12-04T13:52:00.711332+00:00",
        "meta_object_name": "OSCAR 25",
        "meta_object_id": "1988-074A",
        "meta_epoch": "2025-12-04T02:15:01.619136",
        "meta_mean_motion": 13.4262086,
        "meta_eccentricity": 0.00942214,
        "meta_inclination": 90.0354,
        "meta_ra_of_asc_node": 20.2154,
        "meta_arg_of_pericenter": 270.9634,
        "meta_mean_anomaly": 116.5152,
        "meta_ephemeris_type": 0,
        "meta_classification_type": "U",
        "meta_norad_cat_id": 19419,
        "meta_element_set_no": 999,
        "meta_rev_at_epoch": 82524,
        "meta_bstar": 0.00028670284,
        "meta_mean_motion_dot": 1.75e-06,
        "meta_mean_motion_ddot": 0,
        "tle_line1": "1 19419U 88074A   25338.09376874  .00000175  00000+0  28670-3 0  9994",
        "tle_line2": "2 19419  90.0354  20.2154 0094221 270.9634 116.5152 13.42620860825244"
      },
      "geometry": {
        "type": "Point",
        "coordinates": [
          -159.79918366318597,
          -24.69642006953894
        ]
      }
    },
    {
      "type": "Feature",
      "properties": {
        "norad_id": 19420,
        "name": "OSCAR 31",
        "group": "nnss",
        "lat": 89.65545200324962,
        "lon": -153.24927238616593,
        "alt_km": 1160.8807858768669,
        "timestamp": "2025-12-04T13:52:00.711342+00:00",
        "meta_object_name": "OSCAR 31",
        "meta_object_id": "1988-074B",
        "meta_epoch": "2025-12-04T04:48:49.436352",
        "meta_mean_motion": 13.42582601,
        "meta_eccentricity": 0.009247,
        "meta_inclination": 90.0371,
        "meta_ra_of_asc_node": 20.5643,
        "meta_arg_of_pericenter": 264.7621,
        "meta_mean_anomaly": 163.5934,
        "meta_ephemeris_type": 0,
        "meta_classification_type": "U",
        "meta_norad_cat_id": 19420,
        "meta_element_set_no": 999,
        "meta_rev_at_epoch": 82536,
        "meta_bstar": 0.00026349955,
        "meta_mean_motion_dot": 1.61e-06,
        "meta_mean_motion_ddot": 0,
        "tle_line1": "1 19420U 88074B   25338.20057218  .00000161  00000+0  26350-3 0  9995",
        "tle_line2": "2 19420  90.0371  20.5643 0092470 264.7621 163.5934 13.42582601825365"
      },
      "geometry": {
        "type": "Point",
        "coordinates": [
          -153.24927238616593,
          89.65545200324962
        ]
      }
    }
  ]
}